date:2024-08-30T03:18:30+00:00
validtle:1
satid:53405
launchyear:2022
epoch:24242.31689711
epochday:242
tleage:1
tleclassification:U
active:1
name:STARLINK-4510
meananomly:274.2124
meanmotion:15.0886
rightascension:0.0000
declination:0.0000
semimajoraxis:6917.8164275396
altitudeatperigee:539
altitudeatapogee:541
inclination:53.222
eccentricity:0.0001221
argumentofperigree:85.9008
nickname:STARLINK-4510
idesg:22097T  
cosparid:2022-097T
altkm:540.51538317348
velkms:7.5933253843725
velkmh:27336
onumepoch:11388
onumnow:171841.55
otype:1
otypedesc:Low Earth Orbit (LEO)
status:1
timestamp:2024-08-29T07:36:20+00:00
nowjuliandate:2460552.637857
nowepochdate:24243.1378472222
TLE:
STARLINK-4510
1 53405U 22097T   24242.31689711  .00002292  00000+0  16197-3 0  9998
2 53405  53.2220 106.2662 0001221  85.9008 274.2124 15.08861601113881